CCSDS_OMM_VERS = 2.0
CREATION_DATE  = 
ORIGINATOR     = 

OBJECT_NAME    = SL-4 R/B
OBJECT_ID      = 2014-021B
CENTER_NAME    = EARTH
REF_FRAME      = TEME
TIME_SYSTEM    = UTC
MEAN_ELEMENT_THEORY = SGP/SGP4

EPOCH          = 2025-12-04T13:13:24.190752
MEAN_MOTION    = 15.36364098
ECCENTRICITY   = .0102447
INCLINATION    = 51.6086
RA_OF_ASC_NODE = 80.3813
ARG_OF_PERICENTER = 116.7221
MEAN_ANOMALY   = 244.4291

EPHEMERIS_TYPE = 0
CLASSIFICATION_TYPE = U
NORAD_CAT_ID   = 39679
ELEMENT_SET_NO = 999
REV_AT_EPOCH   = 64163
BSTAR          = .61783E-3
MEAN_MOTION_DOT = .26204E-3
MEAN_MOTION_DDOT = 0

CCSDS_OMM_VERS = 2.0
CREATION_DATE  = 
ORIGINATOR     = 

OBJECT_NAME    = ALOS-2
OBJECT_ID      = 2014-029A
CENTER_NAME    = EARTH
REF_FRAME      = TEME
TIME_SYSTEM    = UTC
MEAN_ELEMENT_THEORY = SGP/SGP4

EPOCH          = 2025-12-04T18:17:43.183104
MEAN_MOTION    = 14.79453512
ECCENTRICITY   = .0001486
INCLINATION    = 97.9239
RA_OF_ASC_NODE = 73.7226
ARG_OF_PERICENTER = 108.6237
MEAN_ANOMALY   = 251.5135

EPHEMERIS_TYPE = 0
CLASSIFICATION_TYPE = U
NORAD_CAT_ID   = 39766
ELEMENT_SET_NO = 999
REV_AT_EPOCH   = 62283
BSTAR          = .6095E-3
MEAN_MOTION_DOT = .4501E-4
MEAN_MOTION_DDOT = 0

CCSDS_OMM_VERS = 2.0
CREATION_DATE  = 
ORIGINATOR     = 

OBJECT_NAME    = YAOGAN-29
OBJECT_ID      = 2015-069A
CENTER_NAME    = EARTH
REF_FRAME      = TEME
TIME_SYSTEM    = UTC
MEAN_ELEMENT_THEORY = SGP/SGP4

EPOCH          = 2025-12-04T18:57:17.189856
MEAN_MOTION    = 14.82869169
ECCENTRICITY   = .0000659
INCLINATION    = 98.0227
RA_OF_ASC_NODE = 1.9357
ARG_OF_PERICENTER = 2.1038
MEAN_ANOMALY   = 358.0178

EPHEMERIS_TYPE = 0
CLASSIFICATION_TYPE = U
NORAD_CAT_ID   = 41038
ELEMENT_SET_NO = 999
REV_AT_EPOCH   = 54181
BSTAR          = .12541E-3
MEAN_MOTION_DOT = .962E-5
MEAN_MOTION_DDOT = 0

CCSDS_OMM_VERS = 2.0
CREATION_DATE  = 
ORIGINATOR     = 

OBJECT_NAME    = ASTRO-H (HITOMI)
OBJECT_ID      = 2016-012A
CENTER_NAME    = EARTH
REF_FRAME      = TEME
TIME_SYSTEM    = UTC
MEAN_ELEMENT_THEORY = SGP/SGP4

EPOCH          = 2025-12-04T02:13:45.434208
MEAN_MOTION    = 15.09266666
ECCENTRICITY   = .00094613
INCLINATION    = 30.9999
RA_OF_ASC_NODE = 253.1139
ARG_OF_PERICENTER = 91.0212
MEAN_ANOMALY   = 269.1510

EPHEMERIS_TYPE = 0
CLASSIFICATION_TYPE = U
NORAD_CAT_ID   = 41337
ELEMENT_SET_NO = 999
REV_AT_EPOCH   = 53777
BSTAR          = .3818886E-3
MEAN_MOTION_DOT = .6332E-4
MEAN_MOTION_DDOT = 0

CCSDS_OMM_VERS = 2.0
CREATION_DATE  = 
ORIGINATOR     = 

OBJECT_NAME    = HXMT (HUIYAN)
OBJECT_ID      = 2017-034A
CENTER_NAME    = EARTH
REF_FRAME      = TEME
TIME_SYSTEM    = UTC
MEAN_ELEMENT_THEORY = SGP/SGP4

EPOCH          = 2025-12-04T18:05:17.031840
MEAN_MOTION    = 15.16150673
ECCENTRICITY   = .0032658
INCLINATION    = 43.0119
RA_OF_ASC_NODE = 183.9428
ARG_OF_PERICENTER = 352.2782
MEAN_ANOMALY   = 7.7559

EPHEMERIS_TYPE = 0
CLASSIFICATION_TYPE = U
NORAD_CAT_ID   = 42758
ELEMENT_SET_NO = 999
REV_AT_EPOCH   = 46812
BSTAR          = .4642E-3
MEAN_MOTION_DOT = .901E-4
MEAN_MOTION_DDOT = 0

CCSDS_OMM_VERS = 2.0
CREATION_DATE  = 
ORIGINATOR     = 

OBJECT_NAME    = CZ-2C R/B
OBJECT_ID      = 2018-054D
CENTER_NAME    = EARTH
REF_FRAME      = TEME
TIME_SYSTEM    = UTC
MEAN_ELEMENT_THEORY = SGP/SGP4

EPOCH          = 2025-12-04T02:29:02.911488
MEAN_MOTION    = 15.71910345
ECCENTRICITY   = .00171646
INCLINATION    = 35.1338
RA_OF_ASC_NODE = 239.3732
ARG_OF_PERICENTER = 52.5099
MEAN_ANOMALY   = 307.7191

EPHEMERIS_TYPE = 0
CLASSIFICATION_TYPE = U
NORAD_CAT_ID   = 43521
ELEMENT_SET_NO = 999
REV_AT_EPOCH   = 41369
BSTAR          = .10935966E-2
MEAN_MOTION_DOT = .151724E-2
MEAN_MOTION_DDOT = 0

CCSDS_OMM_VERS = 2.0
CREATION_DATE  = 
ORIGINATOR     = 

OBJECT_NAME    = SAOCOM 1A
OBJECT_ID      = 2018-076A
CENTER_NAME    = EARTH
REF_FRAME      = TEME
TIME_SYSTEM    = UTC
MEAN_ELEMENT_THEORY = SGP/SGP4

EPOCH          = 2025-12-04T16:56:08.158272
MEAN_MOTION    = 14.82164321
ECCENTRICITY   = .0001559
INCLINATION    = 97.8847
RA_OF_ASC_NODE = 163.2449
ARG_OF_PERICENTER = 85.6126
MEAN_ANOMALY   = 274.5265

EPHEMERIS_TYPE = 0
CLASSIFICATION_TYPE = U
NORAD_CAT_ID   = 43641
ELEMENT_SET_NO = 999
REV_AT_EPOCH   = 38729
BSTAR          = .13181E-3
MEAN_MOTION_DOT = .997E-5
MEAN_MOTION_DDOT = 0

CCSDS_OMM_VERS = 2.0
CREATION_DATE  = 
ORIGINATOR     = 

OBJECT_NAME    = H-2A R/B
OBJECT_ID      = 2018-084L
CENTER_NAME    = EARTH
REF_FRAME      = TEME
TIME_SYSTEM    = UTC
MEAN_ELEMENT_THEORY = SGP/SGP4

EPOCH          = 2025-12-04T16:27:26.206272
MEAN_MOTION    = 15.36942117
ECCENTRICITY   = .0028013
INCLINATION    = 98.8774
RA_OF_ASC_NODE = 171.0977
ARG_OF_PERICENTER = 354.1464
MEAN_ANOMALY   = 5.9444

EPHEMERIS_TYPE = 0
CLASSIFICATION_TYPE = U
NORAD_CAT_ID   = 43682
ELEMENT_SET_NO = 999
REV_AT_EPOCH   = 39116
BSTAR          = .95795E-3
MEAN_MOTION_DOT = .3508E-3
MEAN_MOTION_DDOT = 0

CCSDS_OMM_VERS = 2.0
CREATION_DATE  = 
ORIGINATOR     = 

OBJECT_NAME    = SAOCOM 1B
OBJECT_ID      = 2020-059A
CENTER_NAME    = EARTH
REF_FRAME      = TEME
TIME_SYSTEM    = UTC
MEAN_ELEMENT_THEORY = SGP/SGP4

EPOCH          = 2025-12-04T19:18:20.757888
MEAN_MOTION    = 14.82146480
ECCENTRICITY   = .000127
INCLINATION    = 97.8843
RA_OF_ASC_NODE = 162.4433
ARG_OF_PERICENTER = 87.5509
MEAN_ANOMALY   = 272.5849

EPHEMERIS_TYPE = 0
CLASSIFICATION_TYPE = U
NORAD_CAT_ID   = 46265
ELEMENT_SET_NO = 999
REV_AT_EPOCH   = 28469
BSTAR          = .12656E-3
MEAN_MOTION_DOT = .955E-5
MEAN_MOTION_DDOT = 0

CCSDS_OMM_VERS = 2.0
CREATION_DATE  = 
ORIGINATOR     = 

OBJECT_NAME    = CSS (TIANHE)
OBJECT_ID      = 2021-035A
CENTER_NAME    = EARTH
REF_FRAME      = TEME
TIME_SYSTEM    = UTC
MEAN_ELEMENT_THEORY = SGP/SGP4

EPOCH          = 2025-12-04T15:25:24.990240
MEAN_MOTION    = 15.58669844
ECCENTRICITY   = .0009975
INCLINATION    = 41.4682
RA_OF_ASC_NODE = 65.8455
ARG_OF_PERICENTER = 328.5002
MEAN_ANOMALY   = 31.5238

EPHEMERIS_TYPE = 0
CLASSIFICATION_TYPE = U
NORAD_CAT_ID   = 48274
ELEMENT_SET_NO = 999
REV_AT_EPOCH   = 26276
BSTAR          = .47697E-3
MEAN_MOTION_DOT = .37639E-3
MEAN_MOTION_DDOT = 0

CCSDS_OMM_VERS = 2.0
CREATION_DATE  = 
ORIGINATOR     = 

OBJECT_NAME    = COSMOS 2550
OBJECT_ID      = 2021-056A
CENTER_NAME    = EARTH
REF_FRAME      = TEME
TIME_SYSTEM    = UTC
MEAN_ELEMENT_THEORY = SGP/SGP4

EPOCH          = 2025-12-04T18:29:50.602848
MEAN_MOTION    = 15.33832042
ECCENTRICITY   = .0008378
INCLINATION    = 67.1454
RA_OF_ASC_NODE = 328.0380
ARG_OF_PERICENTER = 268.7495
MEAN_ANOMALY   = 91.2699

EPHEMERIS_TYPE = 0
CLASSIFICATION_TYPE = U
NORAD_CAT_ID   = 48865
ELEMENT_SET_NO = 999
REV_AT_EPOCH   = 24890
BSTAR          = .3673E-5
MEAN_MOTION_DOT = -.71E-6
MEAN_MOTION_DDOT = 0

CCSDS_OMM_VERS = 2.0
CREATION_DATE  = 
ORIGINATOR     = 

OBJECT_NAME    = CZ-2C R/B
OBJECT_ID      = 2022-058K
CENTER_NAME    = EARTH
REF_FRAME      = TEME
TIME_SYSTEM    = UTC
MEAN_ELEMENT_THEORY = SGP/SGP4

EPOCH          = 2025-12-04T16:11:55.375872
MEAN_MOTION    = 15.47920473
ECCENTRICITY   = .004629
INCLINATION    = 50.1910
RA_OF_ASC_NODE = 84.6601
ARG_OF_PERICENTER = 165.1601
MEAN_ANOMALY   = 195.0738

EPHEMERIS_TYPE = 0
CLASSIFICATION_TYPE = U
NORAD_CAT_ID   = 52794
ELEMENT_SET_NO = 999
REV_AT_EPOCH   = 19538
BSTAR          = .8991E-3
MEAN_MOTION_DOT = .49669E-3
MEAN_MOTION_DDOT = 0

