SL-4 R/B                
1 39679U 14021B   25338.55097443  .00026204  00000+0  61783-3 0  9991
2 39679  51.6086  80.3813 0102447 116.7221 244.4291 15.36364098641634
ALOS-2                  
1 39766U 14029A   25338.76230536  .00004501  00000+0  60950-3 0  9992
2 39766  97.9239  73.7226 0001486 108.6237 251.5135 14.79453512622839
YAOGAN-29               
1 41038U 15069A   25338.78978229  .00000962  00000+0  12541-3 0  9992
2 41038  98.0227   1.9357 0000659   2.1038 358.0178 14.82869169541810
ASTRO-H (HITOMI)        
1 41337U 16012A   25338.09288697  .00006332  00000+0  38189-3 0  9993
2 41337  30.9999 253.1139 0009461  91.0212 269.1510 15.09266666537778
HXMT (HUIYAN)           
1 42758U 17034A   25338.75366935  .00009010  00000+0  46420-3 0  9994
2 42758  43.0119 183.9428 0032658 352.2782   7.7559 15.16150673468123
CZ-2C R/B               
1 43521U 18054D   25338.10350592  .00151724  00000+0  10936-2 0  9999
2 43521  35.1338 239.3732 0017164  52.5099 307.7191 15.71910345413695
SAOCOM 1A               
1 43641U 18076A   25338.70564998  .00000997  00000+0  13181-3 0  9990
2 43641  97.8847 163.2449 0001559  85.6126 274.5265 14.82164321387292
H-2A R/B                
1 43682U 18084L   25338.68571998  .00035080  00000+0  95795-3 0  9991
2 43682  98.8774 171.0977 0028013 354.1464   5.9444 15.36942117391166
SAOCOM 1B               
1 46265U 20059A   25338.80440692  .00000955  00000+0  12656-3 0  9994
2 46265  97.8843 162.4433 0001270  87.5509 272.5849 14.82146480284695
CSS (TIANHE)            
1 48274U 21035A   25338.64265035  .00037639  00000+0  47697-3 0  9991
2 48274  41.4682  65.8455 0009975 328.5002  31.5238 15.58669844262766
COSMOS 2550             
1 48865U 21056A   25338.77072457 -.00000071  00000+0  36730-5 0  9997
2 48865  67.1454 328.0380 0008378 268.7495  91.2699 15.33832042248901
CZ-2C R/B               
1 52794U 22058K   25338.67494648  .00049669  00000+0  89910-3 0  9996
2 52794  50.1910  84.6601 0046290 165.1601 195.0738 15.47920473195382
